[{"OBJECT_NAME":"STARLINK-5819","OBJECT_ID":"2023-028AR","EPOCH":"2026-03-09T20:46:13.421568","MEAN_MOTION":14.98332198,"ECCENTRICITY":0.00027975,"INCLINATION":69.9999,"RA_OF_ASC_NODE":223.8414,"ARG_OF_PERICENTER":270.8149,"MEAN_ANOMALY":89.269,"EPHEMERIS_TYPE":0,"CLASSIFICATION_TYPE":"U","NORAD_CAT_ID":55780,"ELEMENT_SET_NO":999,"REV_AT_EPOCH":16656,"BSTAR":4.1584442e-5,"MEAN_MOTION_DOT":4.03e-6,"MEAN_MOTION_DDOT":0},{"OBJECT_NAME":"CENTAURI-8","OBJECT_ID":"2025-009DK","EPOCH":"2026-03-09T17:25:58.526112","MEAN_MOTION":14.9722833,"ECCENTRICITY":0.00030201,"INCLINATION":97.7096,"RA_OF_ASC_NODE":150.1876,"ARG_OF_PERICENTER":109.5881,"MEAN_ANOMALY":250.5667,"EPHEMERIS_TYPE":0,"CLASSIFICATION_TYPE":"U","NORAD_CAT_ID":62714,"ELEMENT_SET_NO":999,"REV_AT_EPOCH":6259,"BSTAR":0.00038891127,"MEAN_MOTION_DOT":4.445e-5,"MEAN_MOTION_DDOT":0}]
